     2.100          NAVIGATION                              RINEX VERSION / TYPE
fic2rin                                 06/21/2016 00:08:04 PGM / RUN BY / DATE
                                                            END OF HEADER
13 16  6 20  3 59 44.0 -.258865766227D-04 -.250111042988D-11  .000000000000D+00
     .190000000000D+02  .201875000000D+02  .417374528182D-08 -.111638905642D+01
     .105984508991D-05  .424607866444D-02  .107437372208D-04  .515368661690D+04
     .100784000000D+06 -.614672899246D-07 -.457205009041D+00 -.931322574615D-07
     .971519835381D+00  .173968750000D+03  .200273149019D+01 -.778246702813D-08
    -.691814531138D-09  .100000000000D+01  .190200000000D+04  .000000000000D+00
     .240000000000D+01  .000000000000D+00 -.111758708954D-07  .190000000000D+02
     .983460000000D+05  .400000000000D+01
13 16  6 20  5 59 44.0 -.259047374129D-04 -.250111042988D-11  .000000000000D+00
     .200000000000D+02  .158125000000D+02  .431482258682D-08 -.664786811496D-01
     .922009348869D-06  .424440531060D-02  .102911144495D-04  .515368280602D+04
     .107984000000D+06  .298023223877D-07 -.457261872667D+00  .335276126862D-07
     .971515268150D+00  .187562500000D+03  .200299369778D+01 -.781389690874D-08
    -.562166273625D-09  .100000000000D+01  .190200000000D+04  .000000000000D+00
     .240000000000D+01  .000000000000D+00 -.111758708954D-07  .200000000000D+02
     .100806000000D+06  .400000000000D+01
 1 16  6 20  6  0  0.0  .242223031819D-04  .125055521494D-11  .000000000000D+00
     .600000000000D+02 -.101562500000D+02  .435375277985D-08 -.266303636981D+00
    -.400468707085D-06  .557988940272D-02  .996515154839D-05  .515364505386D+04
     .108000000000D+06  .763684511185D-07 -.265931761889D+01  .931322574615D-08
     .964805050174D+00  .191812500000D+03  .474138884142D+00 -.785425573271D-08
     .615382776020D-09  .100000000000D+01  .190200000000D+04  .000000000000D+00
     .240000000000D+01  .000000000000D+00  .512227416039D-08  .600000000000D+02
     .100806000000D+06  .400000000000D+01
 2 16  6 20  6  0  0.0  .584185123444D-03 -.261479726760D-11  .000000000000D+00
     .810000000000D+02 -.518750000000D+01  .489913263997D-08  .101505041990D+00
    -.365078449249D-06  .157851586118D-01  .106971710920D-04  .515358303642D+04
     .108000000000D+06 -.175088644028D-06 -.270534268207D+01  .271946191788D-06
     .943612598601D+00  .170437500000D+03 -.210838430724D+01 -.827284459718D-08
     .628240454451D-09  .100000000000D+01  .190200000000D+04  .000000000000D+00
     .240000000000D+01  .000000000000D+00 -.200234353542D-07  .810000000000D+02
     .100806000000D+06  .400000000000D+01
 3 16  6 20  6  0  0.0 -.688531436026D-04 -.329691829393D-11  .000000000000D+00
     .690000000000D+02  .359375000000D+01  .520235955630D-08  .726963008150D+00
     .204890966415D-06  .213488470763D-03  .472925603390D-05  .515366970634D+04
     .108000000000D+06 -.186264514923D-08 -.161774368229D+01  .651925802231D-07
     .958781227509D+00  .289156250000D+03 -.165777135189D+01 -.827963059413D-08
     .142505935944D-09  .100000000000D+01  .190200000000D+04  .000000000000D+00
     .240000000000D+01  .000000000000D+00  .186264514923D-08  .690000000000D+02
     .100806000000D+06  .400000000000D+01
 5 16  6 20  6  0  0.0 -.111488159746D-03  .295585778076D-11  .000000000000D+00
     .670000000000D+02  .125000000000D+01  .547594238069D-08  .258697622624D+01
     .108033418655D-06  .464422814548D-02  .476278364658D-05  .515380494308D+04
     .108000000000D+06 -.100582838058D-06 -.162996640088D+01 -.614672899246D-07
     .945847982776D+00  .281312500000D+03  .456286779250D+00 -.830213153139D-08
     .112504686272D-09  .100000000000D+01  .190200000000D+04  .000000000000D+00
     .240000000000D+01  .000000000000D+00 -.107102096081D-07  .670000000000D+02
     .100806000000D+06  .400000000000D+01
 6 16  6 20  6  0  0.0  .207288190722D-03  .534328137292D-11  .000000000000D+00
     .830000000000D+02 -.490625000000D+01  .433196615806D-08 -.417984953608D-04
    -.553205609322D-06  .398857169785D-03  .102240592241D-04  .515371395493D+04
     .108000000000D+06 -.465661287308D-07 -.266774193798D+01 -.167638063431D-07
     .964637136437D+00  .181406250000D+03 -.136563916184D+01 -.777818113532D-08
     .638240871008D-09  .100000000000D+01  .190200000000D+04  .000000000000D+00
     .240000000000D+01  .000000000000D+00  .419095158577D-08  .830000000000D+02
     .100806000000D+06  .400000000000D+01
 7 16  6 20  6  0  0.0  .447310972959D-03 -.238742359215D-11  .000000000000D+00
     .850000000000D+02  .113375000000D+03  .410302805044D-08 -.988593252386D+00
     .580213963985D-05  .960297207348D-02  .787526369095D-05  .515364922714D+04
     .108000000000D+06  .245869159698D-06  .499385950686D+00 -.316649675369D-07
     .966450525801D+00  .232718750000D+03 -.267059794028D+01 -.787354225035D-08
    -.785747015231D-11  .100000000000D+01  .190200000000D+04  .000000000000D+00
     .240000000000D+01  .000000000000D+00 -.111758708954D-07  .850000000000D+02
     .100806000000D+06  .400000000000D+01
 8 16  6 20  6  0  0.0 -.397097319365D-04 -.147792889038D-11  .000000000000D+00
     .460000000000D+02 -.126937500000D+03  .418088843650D-08  .269276326748D+01
    -.660866498947D-05  .170810089912D-02  .691413879395D-05  .515371166039D+04
     .108000000000D+06 -.223517417908D-07  .256375129723D+01 -.130385160446D-07
     .963729348956D+00  .247531250000D+03 -.106833754887D+01 -.790497213096D-08
    -.123933733766D-09  .100000000000D+01  .190200000000D+04  .000000000000D+00
     .240000000000D+01  .000000000000D+00  .465661287308D-08  .460000000000D+02
     .100806000000D+06  .400000000000D+01
 9 16  6 20  6  0  0.0  .152040738612D-03  .727595761418D-11  .000000000000D+00
     .670000000000D+02 -.406250000000D+01  .465055085697D-08  .144980174448D+01
    -.294297933578D-06  .525685842149D-03  .951439142227D-05  .515356042290D+04
     .108000000000D+06 -.633299350739D-07 -.578286983151D+00 -.316649675369D-07
     .955033519585D+00  .188718750000D+03  .235155603778D+01 -.795283126734D-08
    -.653598653579D-09  .100000000000D+01  .190200000000D+04  .000000000000D+00
     .240000000000D+01  .000000000000D+00  .139698386192D-08  .670000000000D+02
     .100806000000D+06  .400000000000D+01
10 16  6 20  6  0  0.0 -.492259860039D-04 -.807176547823D-11  .000000000000D+00
     .960000000000D+02  .378125000000D+01  .514450000336D-08 -.260785717282D+01
     .150874257088D-06  .156944058836D-02  .500492751598D-05  .515367040443D+04
     .108000000000D+06 -.111758708954D-07 -.162173378550D+01 -.745058059692D-07
     .959017485853D+00  .284593750000D+03 -.271889642351D+01 -.820677041636D-08
     .921466954226D-10  .100000000000D+01  .190200000000D+04  .000000000000D+00
     .240000000000D+01  .000000000000D+00  .232830643654D-08  .960000000000D+02
     .100806000000D+06  .400000000000D+01
11 16  6 20  6  0  0.0 -.652317889035D-03 -.250111042988D-11  .000000000000D+00
     .590000000000D+02 -.452500000000D+02  .575631120204D-08 -.872269347645D+00
    -.224635004997D-05  .164697787259D-01  .108480453491D-04  .515367159271D+04
     .108000000000D+06 -.210478901863D-06 -.303781071127D+01  .178813934326D-06
     .897329861413D+00  .143281250000D+03  .153329383081D+01 -.873679249390D-08
     .454304637897D-09  .100000000000D+01  .190200000000D+04  .000000000000D+00
     .340000000000D+01  .000000000000D+00 -.121071934700D-07  .590000000000D+02
     .100806000000D+06  .400000000000D+01
12 16  6 20  6  0  0.0  .383218750358D-03  .102318153949D-11  .000000000000D+00
     .310000000000D+02 -.806250000000D+01  .401266714369D-08 -.157011557688D+01
    -.348314642906D-06  .614140531980D-02  .454485416412D-06  .515371109390D+04
     .108000000000D+06  .106170773506D-06  .157630373645D+01 -.109896063805D-06
     .990008063867D+00  .386750000000D+03  .768255526961D+00 -.812176687562D-08
    -.550022910662D-10  .100000000000D+01  .190200000000D+04  .000000000000D+00
     .240000000000D+01  .000000000000D+00 -.125728547573D-07  .310000000000D+02
     .100806000000D+06  .400000000000D+01
14 16  6 20  6  0  0.0 -.203107483685D-04 -.204636307899D-11  .000000000000D+00
     .940000000000D+02  .340625000000D+01  .438946855327D-08  .157945028160D+01
     .502914190292D-07  .877696310636D-02  .108629465103D-04  .515402981758D+04
     .108000000000D+06 -.204890966415D-06 -.494438600198D+00 -.165775418282D-06
     .963973272990D+00  .175156250000D+03 -.196250641150D+01 -.782854037584D-08
    -.677171064036D-09  .100000000000D+01  .190200000000D+04  .000000000000D+00
     .340000000000D+01  .000000000000D+00 -.931322574615D-08  .940000000000D+02
     .100806000000D+06  .400000000000D+01
15 16  6 20  6  0  0.0 -.316033139825D-03 -.159161572810D-11  .000000000000D+00
     .540000000000D+02 -.806250000000D+01  .538772442035D-08  .103860185320D+01
    -.108033418655D-06  .816833891440D-02  .926665961742D-05  .515361098099D+04
     .108000000000D+06  .707805156708D-07 -.631399565515D+00  .931322574615D-07
     .930696739186D+00  .183843750000D+03  .482474132001D+00 -.838142054838D-08
    -.766103339851D-09  .100000000000D+01  .190200000000D+04  .000000000000D+00
     .240000000000D+01  .000000000000D+00 -.107102096081D-07  .540000000000D+02
     .100806000000D+06  .400000000000D+01
16 16  6 20  6  0  0.0 -.973418354988D-05  .238742359215D-11  .000000000000D+00
     .120000000000D+02 -.531250000000D+00  .399588073019D-08  .267792379075D+01
    -.158324837685D-06  .872291694395D-02  .623986124992D-06  .515377462769D+04
     .108000000000D+06 -.670552253723D-07  .159510019154D+01 -.149011611938D-07
     .990514485144D+00  .385843750000D+03  .395128361037D+00 -.807105047736D-08
    -.457161899771D-10  .100000000000D+01  .190200000000D+04  .000000000000D+00
     .240000000000D+01  .000000000000D+00 -.107102096081D-07  .120000000000D+02
     .100806000000D+06  .400000000000D+01
